{
  "type": "FeatureCollection",
  "features": [
    {
      "type": "Feature",
      "properties": {
        "norad_id": 44333,
        "name": "AT&T T-16",
        "group": "intelsat",
        "lat": -0.01638158769644182,
        "lon": -103.11824847620959,
        "alt_km": 35782.505197206345,
        "timestamp": "2025-12-27T17:24:57.061633+00:00",
        "meta_object_name": "AT&T T-16",
        "meta_object_id": "2019-034A",
        "meta_epoch": "2025-12-26T09:24:01.437984",
        "meta_mean_motion": 1.00280007,
        "meta_eccentricity": 9.59e-05,
        "meta_inclination": 0.0209,
        "meta_ra_of_asc_node": 69.0211,
        "meta_arg_of_pericenter": 116.5883,
        "meta_mean_anomaly": 309.683,
        "meta_ephemeris_type": 0,
        "meta_classification_type": "U",
        "meta_norad_cat_id": 44333,
        "meta_element_set_no": 999,
        "meta_rev_at_epoch": 2390,
        "meta_bstar": 0,
        "meta_mean_motion_dot": -9.5e-07,
        "meta_mean_motion_ddot": 0,
        "tle_line1": "1 44333U 19034A   25360.39168331 -.00000095  00000+0  00000+0 0  9997",
        "tle_line2": "2 44333   0.0209  69.0211 0000959 116.5883 309.6830  1.00280007 23905"
      },
      "geometry": {
        "type": "Point",
        "coordinates": [
          -103.11824847620959,
          -0.01638158769644182
        ]
      }
    },
    {
      "type": "Feature",
      "properties": {
        "norad_id": 44476,
        "name": "INTELSAT 39 (IS-39)",
        "group": "intelsat",
        "lat": 0.028798695438451177,
        "lon": 59.61509280051733,
        "alt_km": 35786.855756436635,
        "timestamp": "2025-12-27T17:24:57.061644+00:00",
        "meta_object_name": "INTELSAT 39 (IS-39)",
        "meta_object_id": "2019-049B",
        "meta_epoch": "2025-12-27T11:35:05.959104",
        "meta_mean_motion": 1.00270962,
        "meta_eccentricity": 9.83e-05,
        "meta_inclination": 0.0171,
        "meta_ra_of_asc_node": 7.101,
        "meta_arg_of_pericenter": 150.4764,
        "meta_mean_anomaly": 174.3545,
        "meta_ephemeris_type": 0,
        "meta_classification_type": "U",
        "meta_norad_cat_id": 44476,
        "meta_element_set_no": 999,
        "meta_rev_at_epoch": 2340,
        "meta_bstar": 0,
        "meta_mean_motion_dot": 5.6e-07,
        "meta_mean_motion_ddot": 0,
        "tle_line1": "1 44476U 19049B   25361.48270786  .00000056  00000+0  00000+0 0  9996",
        "tle_line2": "2 44476   0.0171   7.1010 0000983 150.4764 174.3545  1.00270962 23407"
      },
      "geometry": {
        "type": "Point",
        "coordinates": [
          59.61509280051733,
          0.028798695438451177
        ]
      }
    },
    {
      "type": "Feature",
      "properties": {
        "norad_id": 46114,
        "name": "GALAXY 30 (G-30)",
        "group": "intelsat",
        "lat": -0.02491471530578915,
        "lon": -127.34142467368723,
        "alt_km": 35779.02431070579,
        "timestamp": "2025-12-27T17:24:57.061656+00:00",
        "meta_object_name": "GALAXY 30 (G-30)",
        "meta_object_id": "2020-056C",
        "meta_epoch": "2025-12-27T10:41:41.072928",
        "meta_mean_motion": 1.00271311,
        "meta_eccentricity": 0.0002344,
        "meta_inclination": 0.0127,
        "meta_ra_of_asc_node": 356.392,
        "meta_arg_of_pericenter": 279.9567,
        "meta_mean_anomaly": 215.2437,
        "meta_ephemeris_type": 0,
        "meta_classification_type": "U",
        "meta_norad_cat_id": 46114,
        "meta_element_set_no": 999,
        "meta_rev_at_epoch": 1957,
        "meta_bstar": 0,
        "meta_mean_motion_dot": 5.9e-07,
        "meta_mean_motion_ddot": 0,
        "tle_line1": "1 46114U 20056C   25361.44561427  .00000059  00000+0  00000+0 0  9991",
        "tle_line2": "2 46114   0.0127 356.3920 0002344 279.9567 215.2437  1.00271311 19576"
      },
      "geometry": {
        "type": "Point",
        "coordinates": [
          -127.34142467368723,
          -0.02491471530578915
        ]
      }
    },
    {
      "type": "Feature",
      "properties": {
        "norad_id": 54026,
        "name": "GALAXY 33 (G-33)",
        "group": "intelsat",
        "lat": -0.02550658299338279,
        "lon": -135.3336195264094,
        "alt_km": 35780.8074523524,
        "timestamp": "2025-12-27T17:24:57.061668+00:00",
        "meta_object_name": "GALAXY 33 (G-33)",
        "meta_object_id": "2022-128A",
        "meta_epoch": "2025-12-27T10:39:26.288064",
        "meta_mean_motion": 1.00271521,
        "meta_eccentricity": 0.0001861,
        "meta_inclination": 0.0176,
        "meta_ra_of_asc_node": 356.8453,
        "meta_arg_of_pericenter": 275.2444,
        "meta_mean_anomaly": 210.9443,
        "meta_ephemeris_type": 0,
        "meta_classification_type": "U",
        "meta_norad_cat_id": 54026,
        "meta_element_set_no": 999,
        "meta_rev_at_epoch": 1202,
        "meta_bstar": 0,
        "meta_mean_motion_dot": 1.01e-06,
        "meta_mean_motion_ddot": 0,
        "tle_line1": "1 54026U 22128A   25361.44405426  .00000101  00000+0  00000+0 0  9998",
        "tle_line2": "2 54026   0.0176 356.8453 0001861 275.2444 210.9443  1.00271521 12028"
      },
      "geometry": {
        "type": "Point",
        "coordinates": [
          -135.3336195264094,
          -0.02550658299338279
        ]
      }
    },
    {
      "type": "Feature",
      "properties": {
        "norad_id": 54027,
        "name": "GALAXY 34 (G-34)",
        "group": "intelsat",
        "lat": -0.022708310795098628,
        "lon": -131.2862166524749,
        "alt_km": 35781.05386446855,
        "timestamp": "2025-12-27T17:24:57.061679+00:00",
        "meta_object_name": "GALAXY 34 (G-34)",
        "meta_object_id": "2022-128B",
        "meta_epoch": "2025-12-27T10:40:33.680064",
        "meta_mean_motion": 1.00270646,
        "meta_eccentricity": 0.0001697,
        "meta_inclination": 0.0236,
        "meta_ra_of_asc_node": 20.6638,
        "meta_arg_of_pericenter": 250.1205,
        "meta_mean_anomaly": 216.5768,
        "meta_ephemeris_type": 0,
        "meta_classification_type": "U",
        "meta_norad_cat_id": 54027,
        "meta_element_set_no": 999,
        "meta_rev_at_epoch": 1219,
        "meta_bstar": 0,
        "meta_mean_motion_dot": 0,
        "meta_mean_motion_ddot": 0,
        "tle_line1": "1 54027U 22128B   25361.44483426  .00000000  00000+0  00000+0 0  9993",
        "tle_line2": "2 54027   0.0236  20.6638 0001697 250.1205 216.5768  1.00270646 12198"
      },
      "geometry": {
        "type": "Point",
        "coordinates": [
          -131.2862166524749,
          -0.022708310795098628
        ]
      }
    },
    {
      "type": "Feature",
      "properties": {
        "norad_id": 54243,
        "name": "GALAXY 31 (G-31)",
        "group": "intelsat",
        "lat": -0.02006596697324365,
        "lon": -123.34683864642754,
        "alt_km": 35781.30298382101,
        "timestamp": "2025-12-27T17:24:57.061691+00:00",
        "meta_object_name": "GALAXY 31 (G-31)",
        "meta_object_id": "2022-153A",
        "meta_epoch": "2025-12-27T09:36:38.709792",
        "meta_mean_motion": 1.00270638,
        "meta_eccentricity": 0.000186,
        "meta_inclination": 0.0105,
        "meta_ra_of_asc_node": 18.1667,
        "meta_arg_of_pericenter": 268.3104,
        "meta_mean_anomaly": 192.804,
        "meta_ephemeris_type": 0,
        "meta_classification_type": "U",
        "meta_norad_cat_id": 54243,
        "meta_element_set_no": 999,
        "meta_rev_at_epoch": 541,
        "meta_bstar": 0,
        "meta_mean_motion_dot": 0,
        "meta_mean_motion_ddot": 0,
        "tle_line1": "1 54243U 22153A   25361.40044803  .00000000  00000+0  00000+0 0  9999",
        "tle_line2": "2 54243   0.0105  18.1667 0001860 268.3104 192.8040  1.00270638  5415"
      },
      "geometry": {
        "type": "Point",
        "coordinates": [
          -123.34683864642754,
          -0.02006596697324365
        ]
      }
    },
    {
      "type": "Feature",
      "properties": {
        "norad_id": 54244,
        "name": "GALAXY 32 (G-32)",
        "group": "intelsat",
        "lat": -0.026224249996277784,
        "lon": -93.33065579172965,
        "alt_km": 35780.15333646225,
        "timestamp": "2025-12-27T17:24:57.061702+00:00",
        "meta_object_name": "GALAXY 32 (G-32)",
        "meta_object_id": "2022-153B",
        "meta_epoch": "2025-12-27T05:43:17.150016",
        "meta_mean_motion": 1.00271625,
        "meta_eccentricity": 0.00021,
        "meta_inclination": 0.0101,
        "meta_ra_of_asc_node": 27.3802,
        "meta_arg_of_pericenter": 286.8515,
        "meta_mean_anomaly": 136.5664,
        "meta_ephemeris_type": 0,
        "meta_classification_type": "U",
        "meta_norad_cat_id": 54244,
        "meta_element_set_no": 999,
        "meta_rev_at_epoch": 1142,
        "meta_bstar": 0,
        "meta_mean_motion_dot": -1.52e-06,
        "meta_mean_motion_ddot": 0,
        "tle_line1": "1 54244U 22153B   25361.23839294 -.00000152  00000+0  00000+0 0  9996",
        "tle_line2": "2 54244   0.0101  27.3802 0002100 286.8515 136.5664  1.00271625 11426"
      },
      "geometry": {
        "type": "Point",
        "coordinates": [
          -93.33065579172965,
          -0.026224249996277784
        ]
      }
    }
  ]
}